ENTRYSAT                
1 44429U 98067QP  19306.83549238  .00008505  00000-0  13825-3 0  9994
2 44429  51.6423  32.0171 0002548 196.7395 163.3512 15.53581604 19086
VCC C                   
1 44430U 98067QQ  19306.51290487  .00010040  00000-0  16110-3 0  9997
2 44430  51.6428  33.6140 0002733 209.7805 150.3031 15.53709575 17857
VCC B                   
1 44431U 98067QR  19306.52439712  .00008137  00000-0  13387-3 0  9992
2 44431  51.6426  33.6892 0002989 203.5220 156.5634 15.53309564 18971
